[{"OBJECT_NAME":"STARLINK-3950","OBJECT_ID":"2022-086Y","EPOCH":"2026-03-09T14:33:29.159136","MEAN_MOTION":15.0884006,"ECCENTRICITY":0.0001218,"INCLINATION":53.2182,"RA_OF_ASC_NODE":194.4956,"ARG_OF_PERICENTER":91.7497,"MEAN_ANOMALY":268.3634,"EPHEMERIS_TYPE":0,"CLASSIFICATION_TYPE":"U","NORAD_CAT_ID":53264,"ELEMENT_SET_NO":999,"REV_AT_EPOCH":20105,"BSTAR":1.205e-5,"MEAN_MOTION_DOT":-9.6e-7,"MEAN_MOTION_DDOT":0},{"OBJECT_NAME":"AISAT","OBJECT_ID":"2014-034B","EPOCH":"2026-03-09T16:29:04.722144","MEAN_MOTION":15.06703825,"ECCENTRICITY":0.00089151,"INCLINATION":98.2441,"RA_OF_ASC_NODE":333.9816,"ARG_OF_PERICENTER":189.0234,"MEAN_ANOMALY":171.0832,"EPHEMERIS_TYPE":0,"CLASSIFICATION_TYPE":"U","NORAD_CAT_ID":40054,"ELEMENT_SET_NO":999,"REV_AT_EPOCH":63221,"BSTAR":0.00094770343,"MEAN_MOTION_DOT":0.00014038,"MEAN_MOTION_DDOT":0}]
